234P/LINEAR,e,11.5340,179.5661,357.4365,3.797771,0.1331714,0.25722764,21.2212,04/01.0/2025,2000,g 12.0,4.0
# From MPC182890
235P/LINEAR,e,9.8124,200.1927,352.1192,3.448232,0.1539250,0.42630230,319.1299,04/01.0/2025,2000,g 12.0,4.0
# From MPEC 2024-P23
236P/LINEAR,e,16.3558,245.5688,119.4204,3.724424,0.1371246,0.50916060,7.7042,04/01.0/2025,2000,g 14.0,4.0
# From MPC182890
237P/LINEAR,e,14.0146,245.3559,25.5008,3.515953,0.1494994,0.43301234,102.7651,04/01.0/2025,2000,g 14.5,2.0
# From MPEC 2024-L77
238P/Read,e,1.2638,51.6468,324.2705,3.167338,0.1748488,0.25068525,180.2605,04/01.0/2025,2000,g 14.5,4.0
# From MPEC 2021-F20
239P/LINEAR,e,11.3072,255.9413,220.3737,4.464054,0.1044985,0.63146306,237.3546,04/01.0/2025,2000,g 17.5,2.0
# From MPEC 2024-YC7
240P/NEAT,e,23.5370,74.9143,352.0703,3.860056,0.1299612,0.45033347,325.8222,04/01.0/2025,2000,g 11.0,4.0
# From MPEC 2022-J42
241P/LINEAR,e,21.0947,305.4230,111.6025,4.927351,0.0901123,0.61021212,121.1794,04/01.0/2025,2000,g 13.5,4.0
# From MPC182890
242P/Spahr,e,32.4245,180.2703,244.9472,5.537618,0.0756344,0.28279032,7.4657,04/01.0/2025,2000,g  8.0,4.0
# From MPEC 2022-K19
243P/NEAT,e,7.6442,87.6480,283.6985,3.827126,0.1316421,0.36034668,316.4901,04/01.0/2025,2000,g 12.5,4.0
# From MPEC 2024-L77
244P/Scotti,e,2.2578,354.0087,93.4761,4.904026,0.0907559,0.19986596,78.3277,04/01.0/2025,2000,g  9.0,4.0
# From MPEC 2022-CN4
245P/WISE,e,21.1716,316.8859,316.5056,4.052374,0.1208203,0.45576383,315.9952,04/01.0/2025,2000,g 14.0,4.0
# From MPEC 2024-YC7
246P/NEAT,e,17.5847,74.2466,185.6355,4.279105,0.1113460,0.22537166,175.5709,04/01.0/2025,2000,g 10.5,4.0
# From MPEC 2021-F20
247P/LINEAR,e,13.6581,53.9913,47.4945,3.964147,0.1248761,0.62557237,288.4519,04/01.0/2025,2000,g 16.5,2.0
# From MPC 75730
248P/Gibbs,e,6.3520,207.8068,209.9791,5.981552,0.0673726,0.63926144,348.7538,04/01.0/2025,2000,g 14.0,4.0
# From MPEC 2022-YN2
249P/LINEAR,e,8.3854,239.0425,65.7440,2.765016,0.2143668,0.81934812,12.4988,04/01.0/2025,2000,g 15.5,4.0
# From MPC182890
250P/Larson,e,13.1525,73.3047,45.7127,3.778289,0.1342027,0.39858538,353.8596,04/01.0/2025,2000,g 14.5,4.0
# From MPEC 2024-TD8
251P/LINEAR,e,23.3881,219.3376,31.1950,3.512033,0.1497498,0.50424107,61.8213,04/01.0/2025,2000,g 16.5,2.0
# From MPEC 2021-S45
252P/LINEAR,e,10.4196,190.9060,343.3759,3.051198,0.1849262,0.67101839,251.6759,04/01.0/2025,2000,g 17.5,4.0
# From MPC182890
253P/PANSTARRS,e,4.9441,146.8500,230.8416,3.464405,0.1528485,0.41498047,24.7583,04/01.0/2025,2000,g 14.5,4.0
# From MPC182890
254P/McNaught,e,32.5393,129.1800,219.7357,4.619908,0.0992554,0.31852999,163.3023,04/01.0/2025,2000,g 11.0,4.0
# From NK 2214
255P/Levy,e,13.4053,275.6366,186.0427,2.942309,0.1952862,0.71204562,182.7848,04/01.0/2025,2000,g  9.0,4.0
# From MPEC 2024-L77
256P/LINEAR,e,27.6239,81.3270,124.0723,4.635318,0.0987608,0.41797115,74.1762,04/01.0/2025,2000,g 14.0,2.0
# From MPEC 2023-A50
257P/Catalina,e,20.2162,207.7272,117.7367,3.767750,0.1347662,0.42880244,224.4621,04/01.0/2025,2000,g 11.5,4.0
# From MPEC 2021-U31
258P/PANSTARRS,e,6.7511,126.2360,25.5989,4.389105,0.1071865,0.20948211,187.3397,04/01.0/2025,2000,g 13.0,4.0
# From MPC106349
259P/Garradd,e,15.8983,51.3726,257.4956,2.729308,0.2185874,0.33872285,251.1027,04/01.0/2025,2000,g 15.5,4.0
# From MPEC 2022-O01
260P/McNaught,e,15.0435,349.3086,18.4921,3.623567,0.1428893,0.60882370,289.8449,04/01.0/2025,2000,g 13.5,4.0
# From MPEC 2021-J28
261P/Larson,e,6.0733,291.0506,67.3648,3.489773,0.1511849,0.42283507,319.1235,04/01.0/2025,2000,g 14.0,4.0
# From MPC 82322
262P/McNaught-Russell,e,29.2548,217.8872,171.0700,6.869279,0.0547441,0.81604248,245.9209,04/01.0/2025,2000,g 13.5,4.0
# From MPEC 2024-L77
263P/Gibbs,e,11.5267,105.5039,35.0204,3.040914,0.1858651,0.59401389,147.0465,04/01.0/2025,2000,g 18.0,4.0
# From MPC114608
264P/Larsen,e,25.1756,219.2088,341.1271,4.028269,0.1219064,0.34062661,273.0074,04/01.0/2025,2000,g 13.0,4.0
# From MPC 79870
265P/LINEAR,e,14.3424,342.9257,33.5597,4.260596,0.1120724,0.64681148,169.4730,04/01.0/2025,2000,g 14.5,4.0
# From MPEC 2021-F20
266P/Christensen,e,3.4282,4.9478,97.7797,3.528118,0.1487268,0.34091553,268.4891,04/01.0/2025,2000,g 14.7,4.0
# From MPC114608
267P/LONEOS,e,6.1408,228.5750,114.2084,3.209233,0.1714361,0.61468935,58.4808,04/01.0/2025,2000,g 19.5,4.0
# From MPC182890
268P/Bernardi,e,15.6614,125.6322,0.0164,4.591357,0.1001826,0.47452071,10.3708,04/01.0/2025,2000,g 14.0,4.0
# From MPEC 2023-J29
269P/Jedicke,e,7.0841,241.7680,225.7181,7.058851,0.0525537,0.43346166,201.1175,04/01.0/2025,2000,g 10.0,4.0
# From MPC 88332
270P/Gehrels,e,2.9249,223.0292,209.9160,6.649560,0.0574797,0.47019612,247.1376,04/01.0/2025,2000,g  8.0,4.0
# From MPC 92277
271P/van Houten-Lemmon,e,6.8672,9.2862,36.6064,7.032350,0.0528510,0.39595376,225.4211,04/01.0/2025,2000,g 11.0,4.0
# From MPEC 2023-D41
272P/NEAT,e,18.0819,109.4392,27.8865,4.461941,0.1045727,0.45546674,103.3780,04/01.0/2025,2000,g 16.0,2.0
# From MPC 82723
273P/Pons-Gambart,e,136.3914,320.3869,20.1364,31.93923,0.0054603,0.97451101,0.0000,12/22.1276/2012,2000,g 11.5,4.0
# From MPEC 2024-GJ3
274P/Tombaugh-Tenagra,e,15.8209,81.3178,38.4890,4.378391,0.1075802,0.44021994,117.0381,04/01.0/2025,2000,g 13.0,4.0
# From MPC 81862
275P/Hermann,e,21.2551,348.6874,173.8985,5.794758,0.0706563,0.71370069,319.3706,04/01.0/2025,2000,g 17.0,4.0
# From MPC182890
276P/Vorobjov,e,14.7866,211.3075,199.3000,5.360239,0.0794196,0.27266805,8.8284,04/01.0/2025,2000,g 11.5,4.0
# From MPEC 2021-F20
277P/LINEAR,e,16.7927,276.2603,152.4328,3.853580,0.1302889,0.50643178,202.1240,04/01.0/2025,2000,g 15.1,4.0
# From MPEC 2021-S45
278P/McNaught,e,6.6188,13.4821,239.4148,3.648557,0.1414237,0.44912179,232.9635,04/01.0/2025,2000,g 14.0,4.0
# From MPEC 2024-A43
279P/LaSagra,e,5.0522,346.1044,5.6526,3.568689,0.1461979,0.39938131,104.2680,04/01.0/2025,2000,g 14.0,4.0
# From MPEC 2024-RQ6
280P/Larsen,e,11.7753,131.3777,104.6489,4.524847,0.1023996,0.41680404,62.0121,04/01.0/2025,2000,g 12.5,4.0
# From MPEC 2023-D41
281P/MOSS,e,4.7177,87.1657,26.9758,4.886216,0.0912526,0.17391515,71.8190,04/01.0/2025,2000,g 11.0,4.0
# From MPC133426
282P/,e,5.8135,217.6078,9.1134,4.235623,0.1130650,0.18764793,142.0269,04/01.0/2025,2000,g 13.5,2.0
# From MPEC 2022-K19
283P/Spacewatch,e,14.4675,161.1227,22.1442,4.131949,0.1173469,0.48488546,152.6514,04/01.0/2025,2000,g 16.0,2.0
# From MPEC 2024-D33
284P/McNaught,e,11.8534,144.2651,202.4700,3.678772,0.1396850,0.37436572,181.2500,04/01.0/2025,2000,g 13.0,4.0
# From MPEC 2024-L77
285P/LINEAR,e,25.0333,185.5130,178.3888,4.505544,0.1030584,0.61812072,83.4884,04/01.0/2025,2000,g 15.0,4.0
# From MPEC 2024-LE0
286P/Christensen,e,17.2033,283.5734,24.1963,4.083963,0.1194212,0.42976722,125.9714,04/01.0/2025,2000,g 14.0,4.0
# From MPEC 2025-A40
287P/Christensen,e,16.3257,138.7859,190.0978,4.182317,0.1152335,0.27283576,72.7605,04/01.0/2025,2000,g 13.5,4.0
# From MPC133426
288P/,e,3.2383,83.1054,280.2970,3.050355,0.1850029,0.19967619,208.4870,04/01.0/2025,2000,g 16.0,2.0
# From MPEC 2024-O39
289P/Blanpain,e,5.9003,68.8913,9.8787,3.043923,0.1855896,0.68647703,357.5280,04/01.0/2025,2000,g 19.0,4.0
# From MPC 95214
290P/Jager,e,20.0466,302.6745,181.8516,6.214046,0.0636271,0.62820857,259.9002,04/01.0/2025,2000,g 10.5,4.0
# From MPEC 2024-YC7
291P/NEAT,e,6.3097,237.6609,173.5592,4.534816,0.1020621,0.43392609,71.2364,04/01.0/2025,2000,g 13.0,4.0
# From MPEC 2022-K19
292P/Li,e,24.3226,90.8953,319.6578,6.096175,0.0654814,0.58992715,266.1929,04/01.0/2025,2000,g 12.5,4.0
# From MPEC 2022-L66
293P/Spacewatch,e,9.0612,78.3637,40.9769,3.637821,0.1420503,0.41949658,221.9222,04/01.0/2025,2000,g 14.5,4.0
# From MPC182890
294P/LINEAR,e,17.7420,309.6013,237.5773,3.191057,0.1729028,0.60104334,337.1445,04/01.0/2025,2000,g 15.5,4.0
# From MPEC 2022-K19
295P/LINEAR,e,21.0839,7.3826,73.0343,5.299265,0.0807943,0.61764674,321.4031,04/01.0/2025,2000,g 12.0,4.0
# From MPEC 2021-N06
296P/Garradd,e,25.3805,263.5327,350.1210,3.475167,0.1521390,0.48517051,250.6537,04/01.0/2025,2000,g 14.0,4.0
# From MPC102956
297P/Beshore,e,11.2385,92.1837,142.2649,3.564331,0.1464661,0.28839871,224.4454,04/01.0/2025,2000,g 15.0,4.0
# From MPC114609
298P/Christensen,e,7.8721,52.7880,100.6150,3.588249,0.1450041,0.38686483,241.8481,04/01.0/2025,2000,g 15.0,4.0
# From MPEC 2024-TD8
299P/Catalina-PANSTARRS,e,10.4690,271.5807,323.6267,4.388869,0.1071951,0.28092376,36.0121,04/01.0/2025,2000,g 11.5,4.0
# From MPEC 2023-VM5
300P/Catalina,e,5.6765,95.6216,222.8847,2.696524,0.2225859,0.69198967,160.4820,04/01.0/2025,2000,g 16.0,4.0
# From MPC 89014
301P/LINEAR-NEAT,e,10.3290,351.0643,193.4394,5.751118,0.0714621,0.58616224,278.3715,04/01.0/2025,2000,g 13.0,4.0
# From MPEC 2024-YC7
302P/Lemmon-PANSTARRS,e,6.0356,121.7155,208.6282,4.267588,0.1117970,0.22939373,2.5250,04/01.0/2025,2000,g 12.5,4.0
# From MPC 92278
303P/NEAT,e,7.0162,347.9514,357.0292,5.040039,0.0871070,0.51030310,331.6977,04/01.0/2025,2000,g 13.5,4.0
# From MPEC 2022-K19
304P/Ory,e,2.6057,58.9390,335.2779,3.149747,0.1763155,0.60086837,298.0800,04/01.0/2025,2000,g 16.5,4.0
# From MPC182890
305P/Skiff,e,11.6712,240.1035,147.4150,4.637231,0.0986997,0.69409959,13.3098,04/01.0/2025,2000,g 18.0,4.0
# From MPC 92278
306P/LINEAR,e,8.3028,341.3529,0.8965,3.124476,0.1784589,0.59258244,338.1125,04/01.0/2025,2000,g 19.0,4.0
# From MPC 92278
307P/LINEAR,e,4.4348,158.1195,222.2504,5.787935,0.0707813,0.67507725,265.0710,04/01.0/2025,2000,g 15.0,4.0
# From MPEC 2022-C56
308P/Lagerkvist-Carsenty,e,4.8525,63.0987,333.7559,6.600943,0.0581159,0.36425255,209.7038,04/01.0/2025,2000,g 13.0,2.0
# From MPC182891
309P/LINEAR,e,17.0204,10.1383,49.9157,4.374664,0.1077177,0.61825001,39.6443,04/01.0/2025,2000,g 15.0,4.0
# From MPC182891
310P/Hill,e,13.1200,8.8839,31.5243,4.181316,0.1152749,0.42212571,60.6132,04/01.0/2025,2000,g 13.5,4.0
# From MPEC 2024-A43
311P/PANSTARRS,e,4.9712,279.1693,144.2815,2.188604,0.3044060,0.11553311,138.5381,04/01.0/2025,2000,g 17.0,4.0
# From MPEC 2024-NE4
